0 SL-6 R/B(2)
1 06302U 72072E   13282.59611787 -.00000114  00000-0  00000+0 0  2695
2 06302 066.2864 288.0003 6482467 003.9580 359.3840 02.03787112138261
0 SL-6 R/B(2)
1 06302U 72072E   13285.04968661 -.00000425  00000-0  00000+0 0  2701
2 06302 066.2814 287.7911 6483584 003.9180 359.3972 02.03788611138314
0 SL-6 R/B(2)
1 06302U 72072E   13287.50325341 -.00000605  00000-0  00000+0 0  2717
2 06302 066.2763 287.5820 6484716 003.8784 359.4117 02.03787723138361
0 SL-6 R/B(2)
1 06302U 72072E   13289.95679664 -.00000653  00000-0  00000+0 0  2722
2 06302 066.2706 287.3730 6485769 003.8387 359.3921 02.03784914138411
0 SL-6 R/B(2)
1 06302U 72072E   13292.90106776 -.00000524  00000-0  00000+0 0  2738
2 06302 066.2650 287.1222 6487056 003.7907 359.3456 02.03780309138474
